{
  "norad_id": 51794,
  "name": "STARLINK-3573",
  "history": [
    {
      "epoch": "2026-04-11T16:20:45.471840Z",
      "apogee_km": 540.5711190445027,
      "perigee_km": 538.9301960921284,
      "latitude_deg": -1.2176502082162003e-06,
      "longitude_deg": 115.92724987906313,
      "height_km": 540.6369125657835,
      "semi_major_axis_km": 6917.887657568315,
      "eccentricity": 0.0001186,
      "inclination_deg": 53.2167,
      "raan_deg": 201.0138,
      "arg_perigee_deg": 89.3285,
      "mean_anomaly_deg": 270.7843,
      "mean_motion_rev_day": 15.08837622
    },
    {
      "epoch": "2026-04-13T06:30:00.950112Z",
      "apogee_km": 540.5640472224031,
      "perigee_km": 538.9895300441103,
      "latitude_deg": 4.9368663553023935e-05,
      "longitude_deg": -105.09034755648857,
      "height_km": 540.6388549602224,
      "semi_major_axis_km": 6917.913788633256,
      "eccentricity": 0.0001138,
      "inclination_deg": 53.2162,
      "raan_deg": 193.8776,
      "arg_perigee_deg": 87.5388,
      "mean_anomaly_deg": 272.5735,
      "mean_motion_rev_day": 15.08829073
    },
    {
      "epoch": "2026-04-14T12:42:20.645568Z",
      "apogee_km": 540.4773127309245,
      "perigee_km": 539.0318884598964,
      "latitude_deg": -3.9307201361229463e-05,
      "longitude_deg": 154.93692872296256,
      "height_km": 540.5440478667792,
      "semi_major_axis_km": 6917.891600595411,
      "eccentricity": 0.00010447,
      "inclination_deg": 53.2158,
      "raan_deg": 188.2275,
      "arg_perigee_deg": 81.5227,
      "mean_anomaly_deg": 278.5883,
      "mean_motion_rev_day": 15.08836332
    },
    {
      "epoch": "2026-04-15T09:22:21.686592Z",
      "apogee_km": 540.4932970410473,
      "perigee_km": 539.0246277282331,
      "latitude_deg": 4.9433392020386685e-05,
      "longitude_deg": -159.78170311787193,
      "height_km": 540.5464894881538,
      "semi_major_axis_km": 6917.89596238464,
      "eccentricity": 0.00010615,
      "inclination_deg": 53.2158,
      "raan_deg": 184.3619,
      "arg_perigee_deg": 81.5092,
      "mean_anomaly_deg": 278.6021,
      "mean_motion_rev_day": 15.08834905
    },
    {
      "epoch": "2026-04-16T13:59:02.476320Z",
      "apogee_km": 540.0825227436226,
      "perigee_km": 538.3020021914635,
      "latitude_deg": 2.5384837348696703e-06,
      "longitude_deg": 124.51788154461077,
      "height_km": 540.3542016720515,
      "semi_major_axis_km": 6917.329262467542,
      "eccentricity": 0.0001287,
      "inclination_deg": 53.2145,
      "raan_deg": 179.0065,
      "arg_perigee_deg": 107.4047,
      "mean_anomaly_deg": 252.7086,
      "mean_motion_rev_day": 15.09020325
    },
    {
      "epoch": "2026-04-18T00:00:04.000320Z",
      "apogee_km": 532.756197859324,
      "perigee_km": 530.7266283718227,
      "latitude_deg": 24.193981872020718,
      "longitude_deg": 126.97579647155159,
      "height_km": 532.7736316489719,
      "semi_major_axis_km": 6909.878413115573,
      "eccentricity": 0.00014686,
      "inclination_deg": 53.2165,
      "raan_deg": 172.6336,
      "arg_perigee_deg": 51.1696,
      "mean_anomaly_deg": 98.1216,
      "mean_motion_rev_day": 15.11461724
    },
    {
      "epoch": "2026-04-18T20:00:01.000224Z",
      "apogee_km": 527.9260042223204,
      "perigee_km": 527.5751851325122,
      "latitude_deg": 4.961227156645638,
      "longitude_deg": 25.627021477408164,
      "height_km": 527.9774868152311,
      "semi_major_axis_km": 6905.887594677416,
      "eccentricity": 2.54e-05,
      "inclination_deg": 53.2167,
      "raan_deg": 168.8772,
      "arg_perigee_deg": 345.8696,
      "mean_anomaly_deg": 20.3895,
      "mean_motion_rev_day": 15.12772093
    },
    {
      "epoch": "2026-04-19T20:00:01.999008Z",
      "apogee_km": 523.8494010617478,
      "perigee_km": 522.5974942765406,
      "latitude_deg": 41.69762233374684,
      "longitude_deg": 57.9022439424611,
      "height_km": 526.5606668453605,
      "semi_major_axis_km": 6901.3604476691435,
      "eccentricity": 9.07e-05,
      "inclination_deg": 53.2168,
      "raan_deg": 164.3593,
      "arg_perigee_deg": 56.5014,
      "mean_anomaly_deg": 359.4329,
      "mean_motion_rev_day": 15.14260857
    },
    {
      "epoch": "2026-04-20T14:00:03.000384Z",
      "apogee_km": 521.0468008726011,
      "perigee_km": 519.4095428827086,
      "latitude_deg": -5.6194908345206445,
      "longitude_deg": -73.52220316912367,
      "height_km": 522.6378238814051,
      "semi_major_axis_km": 6898.365171877655,
      "eccentricity": 0.00011867,
      "inclination_deg": 53.2173,
      "raan_deg": 160.9665,
      "arg_perigee_deg": 48.8592,
      "mean_anomaly_deg": 138.0131,
      "mean_motion_rev_day": 15.15247204
    },
    {
      "epoch": "2026-04-21T20:00:01.999008Z",
      "apogee_km": 518.7515757630308,
      "perigee_km": 516.9448276401836,
      "latitude_deg": 7.666773623781146,
      "longitude_deg": 179.63847335612567,
      "height_km": 517.8224633504689,
      "semi_major_axis_km": 6895.9852017016065,
      "eccentricity": 0.000131,
      "inclination_deg": 53.218,
      "raan_deg": 155.2945,
      "arg_perigee_deg": 96.8301,
      "mean_anomaly_deg": 73.5266,
      "mean_motion_rev_day": 15.16031694
    },
    {
      "epoch": "2026-04-22T20:00:03.000384Z",
      "apogee_km": 517.0193647861433,
      "perigee_km": 515.3399092533646,
      "latitude_deg": -39.15218866727291,
      "longitude_deg": -142.8941087053031,
      "height_km": 529.5909677713104,
      "semi_major_axis_km": 6894.316637019753,
      "eccentricity": 0.0001218,
      "inclination_deg": 53.2185,
      "raan_deg": 150.7543,
      "arg_perigee_deg": 97.7954,
      "mean_anomaly_deg": 133.9023,
      "mean_motion_rev_day": 15.16582093
    },
    {
      "epoch": "2026-04-23T16:00:01.999584Z",
      "apogee_km": 516.1349318520734,
      "perigee_km": 513.2431156220746,
      "latitude_deg": 51.078432854989586,
      "longitude_deg": 168.21926501781633,
      "height_km": 519.3897335538386,
      "semi_major_axis_km": 6892.826023737073,
      "eccentricity": 0.00020977,
      "inclination_deg": 53.2179,
      "raan_deg": 146.9692,
      "arg_perigee_deg": 86.6367,
      "mean_anomaly_deg": 17.5797,
      "mean_motion_rev_day": 15.17074074
    },
    {
      "epoch": "2026-04-24T20:00:01.999008Z",
      "apogee_km": 510.09670520905274,
      "perigee_km": 509.78398649755127,
      "latitude_deg": -0.06194554451046678,
      "longitude_deg": -11.25144579257942,
      "height_km": 510.9876938329961,
      "semi_major_axis_km": 6888.077345853302,
      "eccentricity": 2.27e-05,
      "inclination_deg": 53.2185,
      "raan_deg": 141.6635,
      "arg_perigee_deg": 151.8601,
      "mean_anomaly_deg": 208.1639,
      "mean_motion_rev_day": 15.18643163
    },
    {
      "epoch": "2026-04-25T20:00:01.000224Z",
      "apogee_km": 507.520316101507,
      "perigee_km": 505.5292719106801,
      "latitude_deg": 49.45129290922411,
      "longitude_deg": 43.59859497866774,
      "height_km": 511.28053856686523,
      "semi_major_axis_km": 6884.661794006093,
      "eccentricity": 0.0001446,
      "inclination_deg": 53.2183,
      "raan_deg": 137.1054,
      "arg_perigee_deg": 53.8155,
      "mean_anomaly_deg": 17.3756,
      "mean_motion_rev_day": 15.19773425
    },
    {
      "epoch": "2026-04-26T22:00:00.999936Z",
      "apogee_km": 500.92196164686084,
      "perigee_km": 499.20681334887377,
      "latitude_deg": -47.15373391383248,
      "longitude_deg": -179.48327434239818,
      "height_km": 516.7039545901736,
      "semi_major_axis_km": 6878.201387497867,
      "eccentricity": 0.00012468,
      "inclination_deg": 53.2174,
      "raan_deg": 132.1499,
      "arg_perigee_deg": 118.3278,
      "mean_anomaly_deg": 127.5437,
      "mean_motion_rev_day": 15.21915117
    },
    {
      "epoch": "2026-04-27T20:00:03.000384Z",
      "apogee_km": 496.9287187730015,
      "perigee_km": 494.58609555903877,
      "latitude_deg": -40.470550596900544,
      "longitude_deg": -168.5112986593868,
      "height_km": 510.0139612540828,
      "semi_major_axis_km": 6873.89440716602,
      "eccentricity": 0.0001704,
      "inclination_deg": 53.2171,
      "raan_deg": 127.9461,
      "arg_perigee_deg": 94.694,
      "mean_anomaly_deg": 139.1004,
      "mean_motion_rev_day": 15.23345722
    }
  ]
}